{
  "norad_id": 52859,
  "name": "STARLINK-4196",
  "history": [
    {
      "epoch": "2026-03-28T21:17:21.595200Z",
      "apogee_km": 540.6156545808244,
      "perigee_km": 539.0223109588733,
      "latitude_deg": 1.2315483103913325e-05,
      "longitude_deg": 152.30197143842278,
      "height_km": 540.6696642527107,
      "semi_major_axis_km": 6917.955982769849,
      "eccentricity": 0.00011516,
      "inclination_deg": 53.2164,
      "raan_deg": 297.943,
      "arg_perigee_deg": 86.7478,
      "mean_anomaly_deg": 273.3646,
      "mean_motion_rev_day": 15.08815269
    },
    {
      "epoch": "2026-03-29T22:43:32.350080Z",
      "apogee_km": 540.5687406100251,
      "perigee_km": 538.9928389375154,
      "latitude_deg": 3.326389779487344e-05,
      "longitude_deg": 124.95454287592986,
      "height_km": 540.6573021669425,
      "semi_major_axis_km": 6917.91778977377,
      "eccentricity": 0.0001139,
      "inclination_deg": 53.2163,
      "raan_deg": 293.185,
      "arg_perigee_deg": 88.5913,
      "mean_anomaly_deg": 271.521,
      "mean_motion_rev_day": 15.08827764
    }
  ]
}